CCSDS_OMM_VERS = 2.0
CREATION_DATE  = 
ORIGINATOR     = 

OBJECT_NAME    = CENTISPACE-1 OBJECT J
OBJECT_ID      = 2026-060J
CENTER_NAME    = EARTH
REF_FRAME      = TEME
TIME_SYSTEM    = UTC
MEAN_ELEMENT_THEORY = SGP/SGP4

EPOCH          = 2026-03-24T06:18:29.433024
MEAN_MOTION    = 14.75435390
ECCENTRICITY   = .00140069
INCLINATION    = 54.9865
RA_OF_ASC_NODE = 22.1672
ARG_OF_PERICENTER = 303.1660
MEAN_ANOMALY   = 56.7995

EPHEMERIS_TYPE = 0
CLASSIFICATION_TYPE = U
NORAD_CAT_ID   = 68358
ELEMENT_SET_NO = 999
REV_AT_EPOCH   = 24
BSTAR          = .34626937E-4
MEAN_MOTION_DOT = .27E-6
MEAN_MOTION_DDOT = 0

CCSDS_OMM_VERS = 2.0
CREATION_DATE  = 
ORIGINATOR     = 

OBJECT_NAME    = CENTISPACE-1 OBJECT K
OBJECT_ID      = 2026-060K
CENTER_NAME    = EARTH
REF_FRAME      = TEME
TIME_SYSTEM    = UTC
MEAN_ELEMENT_THEORY = SGP/SGP4

EPOCH          = 2026-03-24T06:18:23.424768
MEAN_MOTION    = 14.75497399
ECCENTRICITY   = .00145663
INCLINATION    = 54.9806
RA_OF_ASC_NODE = 22.1642
ARG_OF_PERICENTER = 303.2868
MEAN_ANOMALY   = 56.6736

EPHEMERIS_TYPE = 0
CLASSIFICATION_TYPE = U
NORAD_CAT_ID   = 68359
ELEMENT_SET_NO = 999
REV_AT_EPOCH   = 24
BSTAR          = .34728931E-4
MEAN_MOTION_DOT = .27E-6
MEAN_MOTION_DDOT = 0

