CENTISPACE-1 OBJECT J   
1 68358U 26060J   26083.26284066  .00000027  00000+0  34627-4 0  9991
2 68358  54.9865  22.1672 0014006 303.1660  56.7995 14.75435390   247
CENTISPACE-1 OBJECT K   
1 68359U 26060K   26083.26277112  .00000027  00000+0  34729-4 0  9999
2 68359  54.9806  22.1642 0014566 303.2868  56.6736 14.75497399   241
